#aV2021  4 30  0  0  0.00000000     288 DD+AD WGS84 FIT  NGA
## 2155 432000.00000000   300.00000000 59334 0.0000000000000
+   31     1  2  3  4  5  6  7  8  9 10 12 13 14 15 16 17 18
+         19 20 21 22 23 24 25 26 27 28 29 30 31 32  0  0  0
+          0  0  0  0  0  0  0  0  0  0  0  0  0  0  0  0  0
+          0  0  0  0  0  0  0  0  0  0  0  0  0  0  0  0  0
+          0  0  0  0  0  0  0  0  0  0  0  0  0  0  0  0  0
++         2  2  2  2  2  2  2  2  2  2  2  2  2  2  2  2  2
++         2  2  2  2  2  2  2  2  2  2  2  2  2  2  0  0  0
++         0  0  0  0  0  0  0  0  0  0  0  0  0  0  0  0  0
++         0  0  0  0  0  0  0  0  0  0  0  0  0  0  0  0  0
++         0  0  0  0  0  0  0  0  0  0  0  0  0  0  0  0  0
%c cc cc ccc ccc cccc cccc cccc cccc ccccc ccccc ccccc ccccc
%c cc cc ccc ccc cccc cccc cccc cccc ccccc ccccc ccccc ccccc
%f  0.0000000  0.000000000  0.00000000000  0.000000000000000
%f  0.0000000  0.000000000  0.00000000000  0.000000000000000
%i    0    0    0    0      0      0      0      0         0
%i    0    0    0    0      0      0      0      0         0
/*      NGA, ST. LOUIS,MO.                                  
/*   EPHEMERIS COMPUTED FROM 2 DAYS OF DATA                 
/*   EPOCHA v6 SMOOTHER                                     
/*   G2139 IERS2010 SATIGS SATAPC                           
*  2021  4 30 23 15  0.00000000
P  1  19619.113206  14109.858942 -11668.001931    701.954663                    
V  1 -14057.608468  -2798.428232 -27291.542347     -0.105164                    
P  2   3920.006747 -14976.392388  22239.140045   -600.340277                    
V  2  26059.554124   5692.173766   -736.219358     -0.033100                    
P  3  12717.517329  20597.043562  10976.564152   -151.488540                    
V  3   1180.763677  14125.764414 -27559.987699     -0.104586                    
P  4  10679.237492  10879.285361  21759.127922   -194.340788                    
V  4 -20606.002269  18376.635356    869.658622     -0.016883                    
P  5  -4319.165441 -25784.020494   3947.747479    -40.611026                    
V  5   4397.476554   4199.714617  31230.205711     -0.011027                    
P  6  16552.127383  -8341.180151  19108.052426     11.563084                    
V  6  22772.594856   7813.615060 -16307.515939      0.033251                    
P  7  25831.606852   7142.488013   -968.116267    137.818402                    
V  7    776.612445   3034.047107  31209.577907      0.110879                    
P  8   2515.500325  17013.453173 -20161.132289    -19.469115                    
V  8 -19098.391627  17165.604885  12405.420938     -0.014375                    
P  9  18737.595254    283.490881  18773.792971   -342.567931                    
V  9 -16029.092626  17895.448824  15654.255766     -0.025302                    
P 10 -13212.252495   8029.341284 -21447.073176   -112.769781                    
V 10  -7095.913540 -26599.168406  -5815.953114     -0.076968                    
P 12  -9850.127795 -23063.068825   8714.909247    -34.928234                    
V 12    253.761061 -11562.813232 -29312.606694     -0.051274                    
P 13   7542.861807 -19484.717380 -16451.936572    126.391536                    
V 13  17758.098416 -10739.487401  21158.179210      0.046486                    
P 14  13985.131367  -7136.519201 -21431.648804     91.291509                    
V 14   5669.033878  26608.694951  -5187.982977     -0.040505                    
P 15  -5283.079122 -16991.491384 -19981.359023   -152.535105                    
V 15  17051.246316 -18085.765833  11428.152075      0.026056                    
P 16  -1263.449049  25200.828773   7249.721818   -317.990670                    
V 16  -4065.267138  -9143.631943  30511.743471     -0.059810                    
P 17  22115.556994 -13027.255980  -6400.383570    435.041624                    
V 17  -5269.564130   7207.460686 -30830.624360      0.061282                    
P 18 -25689.960454  -4350.211310  -5334.542502    351.241811                    
V 18  -5677.197824  -4393.617669  30913.360136     -0.005209                    
P 19  20444.417342 -16784.346102   1304.576973     -5.965647                    
V 19   2984.567258    593.343869 -32208.805726      0.049927                    
P 20 -15172.095561 -20014.554990  -9040.070048    522.643295                    
V 20  -1460.932887 -11714.478681  28167.955153     -0.003831                    
P 21  13927.815297  14933.538608 -16522.120574    114.885453                    
V 21 -22053.893962  -2956.128163 -19927.184050      0.027356                    
P 22   9913.726174  24706.040913   1681.418922   -625.412299                    
V 22  -2653.055693   2937.366184 -30942.192075      0.091215                    
P 23 -16074.140532  -4360.965642 -20718.776891    110.169595                    
V 23  -6006.606731 -25561.300772  10003.543633     -0.026648                    
P 24 -15750.778096 -15216.856870 -15540.511482     47.806093                    
V 24  19227.745458   2022.363752 -21420.191783      0.268360                    
P 25 -15590.359584 -12206.212739  17567.664825    128.652184                    
V 25  -3848.048722 -22457.088317 -18471.386646      0.071612                    
P 26  -5958.296931  20446.432330  15648.353925     79.301224                    
V 26  -7979.063582 -18651.854771  21519.673797      0.050607                    
P 27  -8669.465147  20981.174157 -13647.435633   -122.142730                    
V 27 -13839.208012  10343.532328  25371.030095     -0.066978                    
P 28  12025.433907 -11927.646615 -19974.286198    578.541332                    
V 28   4715.696260  26081.002602 -12213.046622     -0.059483                    
P 29 -18445.637644  -1237.125553  19038.259633   -339.220376                    
V 29  18049.050788 -16159.793015  16350.708890     -0.065781                    
P 30  22871.328481  -2889.876180 -13335.560138   -420.031820                    
V 30  15354.981264   7742.175794  24318.352938     -0.050730                    
P 31 -14500.867345  10064.995994  19898.296055   -114.668151                    
V 31 -23806.043093  -8702.977730 -12437.028344     -0.021936                    
P 32 -20984.499761  15284.668019  -5050.042506     21.834708                    
V 32   2645.863144  -6745.216427 -30907.651253     -0.003726                    
EOF
